{"type": "FeatureCollection", "features": [ {"type": "Feature", "properties": {"norad_id": 66910, "name": "1998-067XW", "group": "stations", "lat": -1.6672825273915526, "lon": -19.769762974205687, "alt_km": 410.2807919008819, "timestamp": "2025-12-09T09:46:46.439311+00:00", "meta": {"OBJECT_NAME": "1998-067XW", "OBJECT_ID": "1998-067XW", "EPOCH": "2025-12-08T22:10:28.282080", "MEAN_MOTION": 15.51110893, "ECCENTRICITY": 0.0005927, "INCLINATION": 51.6296, "RA_OF_ASC_NODE": 161.31, "ARG_OF_PERICENTER": 189.6161, "MEAN_ANOMALY": 170.4716, "EPHEMERIS_TYPE": 0, "CLASSIFICATION_TYPE": "U", "NORAD_CAT_ID": 66910, "ELEMENT_SET_NO": 999, "REV_AT_EPOCH": 102, "BSTAR": 0.0011401, "MEAN_MOTION_DOT": 0.00067841, "MEAN_MOTION_DDOT": 0}, "tle": {"line1": "1 66910U 98067XW  25342.92393845  .00067841  00000+0  11401-2 0  9995", "line2": "2 66910  51.6296 161.3100 0005927 189.6161 170.4716 15.51110893  1023"}}, "geometry": {"type": "Point", "coordinates": [-19.769762974205687, -1.6672825273915526]}}, {"type": "Feature", "properties": {"norad_id": 66911, "name": "1998-067XX", "group": "stations", "lat": -2.9323225586631185, "lon": -18.767686339908, "alt_km": 410.1483297464383, "timestamp": "2025-12-09T09:46:46.439331+00:00", "meta": {"OBJECT_NAME": "1998-067XX", "OBJECT_ID": "1998-067XX", "EPOCH": "2025-12-09T02:48:25.031232", "MEAN_MOTION": 15.51276016, "ECCENTRICITY": 0.0005707, "INCLINATION": 51.6296, "RA_OF_ASC_NODE": 160.3494, "ARG_OF_PERICENTER": 191.2278, "MEAN_ANOMALY": 168.8584, "EPHEMERIS_TYPE": 0, "CLASSIFICATION_TYPE": "U", "NORAD_CAT_ID": 66911, "ELEMENT_SET_NO": 999, "REV_AT_EPOCH": 104, "BSTAR": 0.0013712, "MEAN_MOTION_DOT": 0.00082324, "MEAN_MOTION_DDOT": 0}, "tle": {"line1": "1 66911U 98067XX  25343.11695638  .00082324  00000+0  13712-2 0  9993", "line2": "2 66911  51.6296 160.3494 0005707 191.2278 168.8584 15.51276016  1049"}}, "geometry": {"type": "Point", "coordinates": [-18.767686339908, -2.9323225586631185]}}, {"type": "Feature", "properties": {"norad_id": 66912, "name": "1998-067XY", "group": "stations", "lat": 6.779416342640223, "lon": -26.47377263765109, "alt_km": 411.7640541852261, "timestamp": "2025-12-09T09:46:46.439342+00:00", "meta": {"OBJECT_NAME": "1998-067XY", "OBJECT_ID": "1998-067XY", "EPOCH": "2025-12-08T19:07:24.190464", "MEAN_MOTION": 15.50590013, "ECCENTRICITY": 0.00050406, "INCLINATION": 51.6301, "RA_OF_ASC_NODE": 161.961, "ARG_OF_PERICENTER": 202.8515, "MEAN_ANOMALY": 157.2251, "EPHEMERIS_TYPE": 0, "CLASSIFICATION_TYPE": "U", "NORAD_CAT_ID": 66912, "ELEMENT_SET_NO": 999, "REV_AT_EPOCH": 99, "BSTAR": 0.0010396633, "MEAN_MOTION_DOT": 0.00060617, "MEAN_MOTION_DDOT": 0}, "tle": {"line1": "1 66912U 98067XY  25342.79680776  .00060617  00000+0  10397-2 0  9991", "line2": "2 66912  51.6301 161.9610 0005040 202.8515 157.2251 15.50590013   998"}}, "geometry": {"type": "Point", "coordinates": [-26.47377263765109, 6.779416342640223]}}]}